{"type": "FeatureCollection", "features": [ {"type": "Feature", "properties": {"norad_id": 43108, "name": "BEIDOU-3 M8 (C28)", "group": "gnss", "lat": 48.39497597325249, "lon": 75.52516104097893, "alt_km": 21534.942717401704, "timestamp": "2025-12-06T16:45:42.966075+00:00", "meta": {"OBJECT_NAME": "BEIDOU-3 M8 (C28)", "OBJECT_ID": "2018-003B", "EPOCH": "2025-12-05T23:49:06.243168", "MEAN_MOTION": 1.86230755, "ECCENTRICITY": 0.00047661, "INCLINATION": 54.4957, "RA_OF_ASC_NODE": 309.0324, "ARG_OF_PERICENTER": 274.7089, "MEAN_ANOMALY": 85.2198, "EPHEMERIS_TYPE": 0, "CLASSIFICATION_TYPE": "U", "NORAD_CAT_ID": 43108, "ELEMENT_SET_NO": 999, "REV_AT_EPOCH": 5376, "BSTAR": 0, "MEAN_MOTION_DOT": -7.1e-07, "MEAN_MOTION_DDOT": 0}, "tle": {"line1": "1 43108U 18003B   25339.99243337 -.00000071  00000+0  00000+0 0  9997", "line2": "2 43108  54.4957 309.0324 0004766 274.7089  85.2198  1.86230755 53764"}}, "geometry": {"type": "Point", "coordinates": [75.52516104097893, 48.39497597325249]}}, {"type": "Feature", "properties": {"norad_id": 43207, "name": "BEIDOU-3 M4 (C22)", "group": "gnss", "lat": 2.412875847642807, "lon": -112.08475451437837, "alt_km": 21538.902800994183, "timestamp": "2025-12-06T16:45:42.966087+00:00", "meta": {"OBJECT_NAME": "BEIDOU-3 M4 (C22)", "OBJECT_ID": "2018-018A", "EPOCH": "2025-12-02T03:19:43.852800", "MEAN_MOTION": 1.86230706, "ECCENTRICITY": 0.00040749, "INCLINATION": 56.4768, "RA_OF_ASC_NODE": 69.6557, "ARG_OF_PERICENTER": 15.1369, "MEAN_ANOMALY": 344.8773, "EPHEMERIS_TYPE": 0, "CLASSIFICATION_TYPE": "U", "NORAD_CAT_ID": 43207, "ELEMENT_SET_NO": 999, "REV_AT_EPOCH": 5307, "BSTAR": 0, "MEAN_MOTION_DOT": -4.5e-07, "MEAN_MOTION_DDOT": 0}, "tle": {"line1": "1 43207U 18018A   25336.13870200 -.00000045  00000+0  00000+0 0  9992", "line2": "2 43207  56.4768  69.6557 0004074  15.1369 344.8773  1.86230706 53076"}}, "geometry": {"type": "Point", "coordinates": [-112.08475451437837, 2.412875847642807]}}, {"type": "Feature", "properties": {"norad_id": 43208, "name": "BEIDOU-3 M3 (C21)", "group": "gnss", "lat": 37.990636924094524, "lon": -141.60469408651383, "alt_km": 21540.917560993166, "timestamp": "2025-12-06T16:45:42.966100+00:00", "meta": {"OBJECT_NAME": "BEIDOU-3 M3 (C21)", "OBJECT_ID": "2018-018B", "EPOCH": "2025-12-03T06:41:57.693408", "MEAN_MOTION": 1.86230862, "ECCENTRICITY": 0.0006282, "INCLINATION": 56.4772, "RA_OF_ASC_NODE": 69.6218, "ARG_OF_PERICENTER": 317.5873, "MEAN_ANOMALY": 42.3668, "EPHEMERIS_TYPE": 0, "CLASSIFICATION_TYPE": "U", "NORAD_CAT_ID": 43208, "ELEMENT_SET_NO": 999, "REV_AT_EPOCH": 5309, "BSTAR": 0, "MEAN_MOTION_DOT": -4.9e-07, "MEAN_MOTION_DDOT": 0}, "tle": {"line1": "1 43208U 18018B   25337.27913997 -.00000049  00000+0  00000+0 0  9994", "line2": "2 43208  56.4772  69.6218 0006282 317.5873  42.3668  1.86230862 53096"}}, "geometry": {"type": "Point", "coordinates": [-141.60469408651383, 37.990636924094524]}}, {"type": "Feature", "properties": {"norad_id": 43245, "name": "BEIDOU-3 M9 (C29)", "group": "gnss", "lat": -10.098301837693008, "lon": -60.67779518155488, "alt_km": 21528.447343923446, "timestamp": "2025-12-06T16:45:42.966111+00:00", "meta": {"OBJECT_NAME": "BEIDOU-3 M9 (C29)", "OBJECT_ID": "2018-029A", "EPOCH": "2025-12-06T04:19:14.769120", "MEAN_MOTION": 1.86227839, "ECCENTRICITY": 0.00016618, "INCLINATION": 54.3718, "RA_OF_ASC_NODE": 306.6963, "ARG_OF_PERICENTER": 275.8871, "MEAN_ANOMALY": 84.077, "EPHEMERIS_TYPE": 0, "CLASSIFICATION_TYPE": "U", "NORAD_CAT_ID": 43245, "ELEMENT_SET_NO": 999, "REV_AT_EPOCH": 5230, "BSTAR": 0, "MEAN_MOTION_DOT": -6.9e-07, "MEAN_MOTION_DDOT": 0}, "tle": {"line1": "1 43245U 18029A   25340.18003205 -.00000069  00000+0  00000+0 0  9995", "line2": "2 43245  54.3718 306.6963 0001661 275.8871  84.0770  1.86227839 52305"}}, "geometry": {"type": "Point", "coordinates": [-60.67779518155488, -10.098301837693008]}}, {"type": "Feature", "properties": {"norad_id": 43246, "name": "BEIDOU-3 M10 (C30)", "group": "gnss", "lat": 24.71704070624753, "lon": -34.053276883320244, "alt_km": 21515.642384867035, "timestamp": "2025-12-06T16:45:42.966124+00:00", "meta": {"OBJECT_NAME": "BEIDOU-3 M10 (C30)", "OBJECT_ID": "2018-029B", "EPOCH": "2025-12-05T00:59:36.820032", "MEAN_MOTION": 1.86228856, "ECCENTRICITY": 0.00040279, "INCLINATION": 54.3703, "RA_OF_ASC_NODE": 306.7635, "ARG_OF_PERICENTER": 0.0249, "MEAN_ANOMALY": 359.9572, "EPHEMERIS_TYPE": 0, "CLASSIFICATION_TYPE": "U", "NORAD_CAT_ID": 43246, "ELEMENT_SET_NO": 999, "REV_AT_EPOCH": 5226, "BSTAR": 0, "MEAN_MOTION_DOT": -6.9e-07, "MEAN_MOTION_DDOT": 0}, "tle": {"line1": "1 43246U 18029B   25339.04139838 -.00000069  00000+0  00000+0 0  9991", "line2": "2 43246  54.3703 306.7635 0004027   0.0249 359.9572  1.86228856 52262"}}, "geometry": {"type": "Point", "coordinates": [-34.053276883320244, 24.71704070624753]}}, {"type": "Feature", "properties": {"norad_id": 43286, "name": "IRNSS-1I", "group": "gnss", "lat": -23.42643037554874, "lon": 26.20794674044131, "alt_km": 35842.43200005549, "timestamp": "2025-12-06T16:45:42.966136+00:00", "meta": {"OBJECT_NAME": "IRNSS-1I", "OBJECT_ID": "2018-035A", "EPOCH": "2025-12-05T20:48:16.684992", "MEAN_MOTION": 1.00268269, "ECCENTRICITY": 0.00219842, "INCLINATION": 29.1335, "RA_OF_ASC_NODE": 77.2048, "ARG_OF_PERICENTER": 180.9988, "MEAN_ANOMALY": 183.8684, "EPHEMERIS_TYPE": 0, "CLASSIFICATION_TYPE": "U", "NORAD_CAT_ID": 43286, "ELEMENT_SET_NO": 999, "REV_AT_EPOCH": 2814, "BSTAR": 0, "MEAN_MOTION_DOT": 7.3e-07, "MEAN_MOTION_DDOT": 0}, "tle": {"line1": "1 43286U 18035A   25339.86685978  .00000073  00000+0  00000+0 0  9997", "line2": "2 43286  29.1335  77.2048 0021984 180.9988 183.8684  1.00268269 28140"}}, "geometry": {"type": "Point", "coordinates": [26.20794674044131, -23.42643037554874]}}, {"type": "Feature", "properties": {"norad_id": 43508, "name": "COSMOS 2527 (756)", "group": "gnss", "lat": 7.562081436570805, "lon": 83.80874211159356, "alt_km": 19147.35993255117, "timestamp": "2025-12-06T16:45:42.966147+00:00", "meta": {"OBJECT_NAME": "COSMOS 2527 (756)", "OBJECT_ID": "2018-053A", "EPOCH": "2025-12-04T19:27:07.624224", "MEAN_MOTION": 2.1310203, "ECCENTRICITY": 0.00086941, "INCLINATION": 65.4682, "RA_OF_ASC_NODE": 80.3968, "ARG_OF_PERICENTER": 224.6174, "MEAN_ANOMALY": 135.3122, "EPHEMERIS_TYPE": 0, "CLASSIFICATION_TYPE": "U", "NORAD_CAT_ID": 43508, "ELEMENT_SET_NO": 999, "REV_AT_EPOCH": 5813, "BSTAR": 0, "MEAN_MOTION_DOT": -2.1e-07, "MEAN_MOTION_DDOT": 0}, "tle": {"line1": "1 43508U 18053A   25338.81050491 -.00000021  00000+0  00000+0 0  9998", "line2": "2 43508  65.4682  80.3968 0008694 224.6174 135.3122  2.13102030 58136"}}, "geometry": {"type": "Point", "coordinates": [83.80874211159356, 7.562081436570805]}}, {"type": "Feature", "properties": {"norad_id": 43539, "name": "BEIDOU-2 IGSO-7 (C16)", "group": "gnss", "lat": -54.874465220865304, "lon": 82.28520539930798, "alt_km": 35491.95495425571, "timestamp": "2025-12-06T16:45:42.966159+00:00", "meta": {"OBJECT_NAME": "BEIDOU-2 IGSO-7 (C16)", "OBJECT_ID": "2018-057A", "EPOCH": "2025-12-05T22:34:51.695904", "MEAN_MOTION": 1.00258883, "ECCENTRICITY": 0.00924726, "INCLINATION": 55.1738, "RA_OF_ASC_NODE": 164.731, "ARG_OF_PERICENTER": 235.1961, "MEAN_ANOMALY": 125.0638, "EPHEMERIS_TYPE": 0, "CLASSIFICATION_TYPE": "U", "NORAD_CAT_ID": 43539, "ELEMENT_SET_NO": 999, "REV_AT_EPOCH": 2719, "BSTAR": 0, "MEAN_MOTION_DOT": -5.3e-07, "MEAN_MOTION_DDOT": 0}, "tle": {"line1": "1 43539U 18057A   25339.94087611 -.00000053  00000+0  00000+0 0  9990", "line2": "2 43539  55.1738 164.7310 0092472 235.1961 125.0638  1.00258883 27197"}}, "geometry": {"type": "Point", "coordinates": [82.28520539930798, -54.874465220865304]}}, {"type": "Feature", "properties": {"norad_id": 43564, "name": "GSAT0221 (GALILEO 25)", "group": "gnss", "lat": 17.168292193621724, "lon": -1.5371068141308455, "alt_km": 23223.416186562023, "timestamp": "2025-12-06T16:45:42.966170+00:00", "meta": {"OBJECT_NAME": "GSAT0221 (GALILEO 25)", "OBJECT_ID": "2018-060A", "EPOCH": "2025-12-04T07:38:46.646016", "MEAN_MOTION": 1.70475653, "ECCENTRICITY": 0.00066579, "INCLINATION": 57.2296, "RA_OF_ASC_NODE": 347.0453, "ARG_OF_PERICENTER": 280.7305, "MEAN_ANOMALY": 79.2265, "EPHEMERIS_TYPE": 0, "CLASSIFICATION_TYPE": "U", "NORAD_CAT_ID": 43564, "ELEMENT_SET_NO": 999, "REV_AT_EPOCH": 4584, "BSTAR": 0, "MEAN_MOTION_DOT": -7.1e-07, "MEAN_MOTION_DDOT": 0}, "tle": {"line1": "1 43564U 18060A   25338.31859544 -.00000071  00000+0  00000+0 0  9994", "line2": "2 43564  57.2296 347.0453 0006657 280.7305  79.2265  1.70475653 45840"}}, "geometry": {"type": "Point", "coordinates": [-1.5371068141308455, 17.168292193621724]}}, {"type": "Feature", "properties": {"norad_id": 43565, "name": "GSAT0222 (GALILEO 26)", "group": "gnss", "lat": -50.117104991295875, "lon": -142.57867642228638, "alt_km": 23209.971459175293, "timestamp": "2025-12-06T16:45:42.966182+00:00", "meta": {"OBJECT_NAME": "GSAT0222 (GALILEO 26)", "OBJECT_ID": "2018-060B", "EPOCH": "2025-12-05T17:03:57.438144", "MEAN_MOTION": 1.70475397, "ECCENTRICITY": 0.00061787, "INCLINATION": 57.2328, "RA_OF_ASC_NODE": 347.0105, "ARG_OF_PERICENTER": 261.4004, "MEAN_ANOMALY": 98.5552, "EPHEMERIS_TYPE": 0, "CLASSIFICATION_TYPE": "U", "NORAD_CAT_ID": 43565, "ELEMENT_SET_NO": 999, "REV_AT_EPOCH": 4591, "BSTAR": 0, "MEAN_MOTION_DOT": -7.7e-07, "MEAN_MOTION_DDOT": 0}, "tle": {"line1": "1 43565U 18060B   25339.71108146 -.00000077  00000+0  00000+0 0  9991", "line2": "2 43565  57.2328 347.0105 0006178 261.4004  98.5552  1.70475397 45917"}}, "geometry": {"type": "Point", "coordinates": [-142.57867642228638, -50.117104991295875]}}]}